[{"OBJECT_NAME":"ONEWEB-0236","OBJECT_ID":"2021-045AG","EPOCH":"2026-03-09T20:16:44.943168","MEAN_MOTION":13.15547407,"ECCENTRICITY":0.00016368,"INCLINATION":87.8937,"RA_OF_ASC_NODE":279.0458,"ARG_OF_PERICENTER":84.3963,"MEAN_ANOMALY":275.7354,"EPHEMERIS_TYPE":0,"CLASSIFICATION_TYPE":"U","NORAD_CAT_ID":48797,"ELEMENT_SET_NO":999,"REV_AT_EPOCH":23119,"BSTAR":-0.00037741727,"MEAN_MOTION_DOT":-1.29e-6,"MEAN_MOTION_DDOT":0},{"OBJECT_NAME":"OSCAR 24","OBJECT_ID":"1985-066B","EPOCH":"2026-03-09T14:52:42.180960","MEAN_MOTION":13.35952781,"ECCENTRICITY":0.0168053,"INCLINATION":90.1683,"RA_OF_ASC_NODE":93.8019,"ARG_OF_PERICENTER":204.5104,"MEAN_ANOMALY":279.6365,"EPHEMERIS_TYPE":0,"CLASSIFICATION_TYPE":"U","NORAD_CAT_ID":15936,"ELEMENT_SET_NO":999,"REV_AT_EPOCH":97803,"BSTAR":0.00013112,"MEAN_MOTION_DOT":8.1e-7,"MEAN_MOTION_DDOT":0}]
